0 TEVEL 5
1 50998U 22002Q   23088.58092343  .00029317  00000-0  12650-2 0  9990
2 50998  97.4409 156.5442 0011659 145.9197 323.9392 15.22422270 66663
0 ZHUHAI-1 01
1 42761U 17034D   23088.54225750  .00014289  00000-0  74157-3 0  9997
2 42761  43.0171 196.5055 0012352 305.9131 166.9169 15.15914766319550
0 NEXUS
1 43937U 19003F   23088.49955698  .00057337  00000-0  12307-2 0  9995
2 43937  97.0989 117.1222 0015051 198.1740 161.8973 15.44398830233714
0 OBJECT C
1 54684U 22167C   23088.46840973  .00019577  00000-0  11444-2 0  9992
2 54684  97.5482 226.7709 0013688 249.1127 201.4122 15.11839438 16629
0 XW-2D
1 40907U 15049J   23088.46400726  .00022333  00000-0  87382-3 0  9993
2 40907  97.4962  95.7874 0013867  79.0950  79.8200 15.25752098416319
0 TEVEL 1
1 51013U 22002AF  23088.46324255  .00028554  00000-0  12599-2 0  9990
2 51013  97.4406 156.0838 0009695 153.7648 264.7449 15.21685957 66621
0 ISS (ZARYA)
1 25544U 98067A   23088.46018744  .00049479  00000-0  87606-3 0  9998
2 25544  51.6432   3.5570 0005809 146.3940   4.1326 15.49773635389424
0 ZHUHAI-1 02
1 42759U 17034B   23088.45343038  .00015435  00000-0  80182-3 0  9993
2 42759  43.0168 198.4395 0011765 306.3196 139.8924 15.15838654319531
0 XW-2A
1 40903U 15049E   23088.43462976  .00323357  41016-4  10173-2 0  9990
2 40903  97.1219 155.8629 0005302 164.6629 323.5042 15.91338782423798
0 TEVEL 4
1 51063U 22002CH  23088.42356993  .00028690  00000-0  12678-2 0  9994
2 51063  97.4424 156.1043 0009719 151.5405 336.9236 15.21633515 66617
0 LILACSAT 2
1 40908U 15049K   23088.42231432  .00009784  00000-0  47434-3 0  9995
2 40908  97.5270  91.7619 0016287 105.3983  41.7986 15.18608375415682
0 TEVEL 7
1 51062U 22002CG  23088.41988075  .00028894  00000-0  12752-2 0  9993
2 51062  97.4423 156.1135 0009928 152.7747 335.8561 15.21672051 66618
0 TEVEL 8
1 50989U 22002F   23088.41871936  .00029019  00000-0  12813-2 0  9995
2 50989  97.4416 156.1345 0009024 150.4968 341.2261 15.21663873 66617
0 XW-2C
1 40906U 15049H   23088.41089076  .00018834  00000-0  77137-3 0  9996
2 40906  97.4973  95.3935 0014764  83.4797  26.2873 15.24243816416234
0 XW-2E
1 40909U 15049L   23088.40544515  .00038112  00000-0  11759-2 0  9990
2 40909  97.4608 101.2856 0011368  59.6092  45.9798 15.33411119416890
0 TEVEL 2
1 51069U 22002CP  23088.39224714  .00028541  00000-0  12579-2 0  9996
2 51069  97.4401 156.0360 0010353 154.9181 266.2926 15.21718848 66617
0 TEVEL 3
1 50988U 22002E   23088.32557953  .00028789  00000-0  12689-2 0  9998
2 50988  97.4418 155.9939 0010025 155.5082 270.9842 15.21716651 66605
0 CSS (TIANHE-1)
1 48274U 21035A   23088.32275463  .00041777  00000-0  43576-3 0  9993
2 48274  41.4746 282.9583 0004475 252.8358 104.4871 15.63725181109333
0 BREEZE-KM R/B
1 44909U 19096E   23088.32100547  .00000047  00000-0  14289-3 0  9992
2 44909  82.5237  41.0055 0217890  14.0083 346.6932 12.79719534151999
0 DIWATA 2B
1 43678U 18084H   23088.31551711  .00003189  00000-0  31147-3 0  9994
2 43678  98.0075 230.7522 0010698  67.7054 292.5242 14.93096429240349
0 XW-2B
1 40911U 15049N   23088.31191942  .00022131  00000-0  87108-3 0  9991
2 40911  97.4931  96.1168 0013570  80.7184  44.9332 15.25558613416170
0 XW-2F
1 40910U 15049M   23088.30966505  .00038510  00000-0  12103-2 0  9994
2 40910  97.4684 100.4032 0012347  59.6506  69.1798 15.32810543416634
0 XW-3 (CAS 9)
1 50466U 21131B   23088.26903219  .00001419  00000-0  47619-3 0  9997
2 50466  98.5538 170.0656 0004663  35.9097 324.2403 14.38786600 65864
0 JAS 2
1 24278U 96046B   23088.25857702  .00000042  00000-0  81696-4 0  9995
2 24278  98.5234  77.7267 0349187 264.2312  91.8925 13.53139846314379
0 TEVEL 6
1 50999U 22002R   23088.24393543  .00030216  00000-0  13038-2 0  9991
2 50999  97.4402 156.2083 0011871 147.8528 283.8800 15.22413235 66614
0 AO-91
1 43017U 17073E   23088.16578666  .00013322  00000-0  94752-3 0  9990
2 43017  97.6416 335.6779 0236585 333.6804  25.2544 14.84890761289308
0 LAPAN A2
1 40931U 15052B   23088.15162209  .00001809  00000-0  16086-3 0  9999
2 40931   5.9989 297.8660 0013049 244.3842 115.4596 14.77126763405500
0 NAYIF 1
1 42017U 17008BX  23088.14564152  .00113326  00000-0  15748-2 0  9992
2 42017  97.2225 157.3200 0002627 265.5472  94.5484 15.56609270340933
0 ES'HAIL 2
1 43700U 18090A   23088.07674921  .00000137  00000-0  00000+0 0  9999
2 43700   0.0174 173.0504 0001104 187.0702 239.5041  1.00271801 16123
0 MT-CUBE-2
1 53106U 22080B   23088.05176028 -.00000003  00000-0  00000+0 0  9990
2 53106  70.1795 347.5677 0008286 204.3079 155.7190  6.42557135 16603
0 OSCAR 7
1 07530U 74089B   23087.90662490 -.00000016  00000-0  19076-3 0  9993
2 07530 101.9430  74.0566 0011982 216.0578 199.2858 12.53662684213116
0 UVSQ-SAT
1 47438U 21006AB  23087.88224993  .00020552  00000-0  90795-3 0  9997
2 47438  97.3948 146.2539 0009933  13.1130 347.0362 15.21708922120422
0 FUNCUBE 1
1 39444U 13066AE  23087.87776915  .00006235  00000-0  70459-3 0  9994
2 39444  97.6638  54.9255 0053960 175.4882 184.6831 14.85777160503716
0 EYESAT A
1 22825U 93061C   23087.82926746  .00000251  00000-0  11435-3 0  9997
2 22825  98.8521 129.3852 0007500 306.8229  53.2264 14.30272996538805
0 AO-95
1 43770U 18099N   23087.74371172  .00006640  00000-0  55286-3 0  9995
2 43770  97.5825 151.4654 0014585  45.0208 315.2194 14.98894868235557
0 AO-92
1 43137U 18004AC  23087.73354272  .00037871  00000-0  93972-3 0  9993
2 43137  97.3337 166.3745 0006628  79.5526 280.6467 15.40240763289903
0 SAUDISAT 1C
1 27607U 02058C   23087.67009647  .00002358  00000-0  33814-3 0  9996
2 27607  64.5547 151.7329 0075467 240.7058 118.6489 14.77022991 90332
0 JY1SAT
1 43803U 18099AX  23087.41685205  .00007075  00000-0  57548-3 0  9997
2 43803  97.5813 152.1010 0014581  32.5114 327.7005 14.99776948235589
0 XW-4 (CAS-10)
1 54816U 21035C   23072.25043904  .02330371  77621-5  12756-2 0  9996
2 54816  41.5077   9.4914 0017840 162.4710 197.7314 16.18206266 13316
